[{"OBJECT_NAME":"STARLINK-2614","OBJECT_ID":"2021-038AD","EPOCH":"2026-03-09T22:25:26.404896","MEAN_MOTION":15.30174752,"ECCENTRICITY":0.00013032,"INCLINATION":53.161,"RA_OF_ASC_NODE":344.4552,"ARG_OF_PERICENTER":86.9346,"MEAN_ANOMALY":273.1804,"EPHEMERIS_TYPE":0,"CLASSIFICATION_TYPE":"U","NORAD_CAT_ID":48380,"ELEMENT_SET_NO":999,"REV_AT_EPOCH":26729,"BSTAR":-0.00011387439,"MEAN_MOTION_DOT":-3.727e-5,"MEAN_MOTION_DDOT":0},{"OBJECT_NAME":"ION SCV-004","OBJECT_ID":"2022-002K","EPOCH":"2026-03-09T16:32:03.244416","MEAN_MOTION":15.29369331,"ECCENTRICITY":0.00072157,"INCLINATION":97.2961,"RA_OF_ASC_NODE":128.2294,"ARG_OF_PERICENTER":1.6783,"MEAN_ANOMALY":358.448,"EPHEMERIS_TYPE":0,"CLASSIFICATION_TYPE":"U","NORAD_CAT_ID":50993,"ELEMENT_SET_NO":999,"REV_AT_EPOCH":23008,"BSTAR":0.00023198467,"MEAN_MOTION_DOT":6.538e-5,"MEAN_MOTION_DDOT":0}]
